{"type": "FeatureCollection", "features": [ {"type": "Feature", "properties": {"norad_id": 33939, "name": "COSMOS 2251 DEB", "group": "cosmos-2251-debris", "lat": 41.7563964934921, "lon": 87.90078567088764, "alt_km": 559.9514716528402, "timestamp": "2025-12-16T10:53:45.864206+00:00", "meta": {"OBJECT_NAME": "COSMOS 2251 DEB", "OBJECT_ID": "1993-036EU", "EPOCH": "2025-12-15T13:53:40.339968", "MEAN_MOTION": 15.00120396, "ECCENTRICITY": 0.0003946, "INCLINATION": 74.0064, "RA_OF_ASC_NODE": 74.8459, "ARG_OF_PERICENTER": 45.5365, "MEAN_ANOMALY": 314.6144, "EPHEMERIS_TYPE": 0, "CLASSIFICATION_TYPE": "U", "NORAD_CAT_ID": 33939, "ELEMENT_SET_NO": 999, "REV_AT_EPOCH": 88795, "BSTAR": 0.0019552626, "MEAN_MOTION_DOT": 0.00024449, "MEAN_MOTION_DDOT": 0}, "tle": {"line1": "1 33939U 93036EU  25349.57893912  .00024449  00000+0  19553-2 0  9992", "line2": "2 33939  74.0064  74.8459 0003946  45.5365 314.6144 15.00120396887954"}}, "geometry": {"type": "Point", "coordinates": [87.90078567088764, 41.7563964934921]}}, {"type": "Feature", "properties": {"norad_id": 33940, "name": "COSMOS 2251 DEB", "group": "cosmos-2251-debris", "lat": -15.856537686668775, "lon": 131.76128810681473, "alt_km": 706.2017427734654, "timestamp": "2025-12-16T10:53:45.864216+00:00", "meta": {"OBJECT_NAME": "COSMOS 2251 DEB", "OBJECT_ID": "1993-036EV", "EPOCH": "2025-12-15T20:43:26.696352", "MEAN_MOTION": 14.58826295, "ECCENTRICITY": 0.00111696, "INCLINATION": 74.0383, "RA_OF_ASC_NODE": 137.5483, "ARG_OF_PERICENTER": 217.4499, "MEAN_ANOMALY": 266.1508, "EPHEMERIS_TYPE": 0, "CLASSIFICATION_TYPE": "U", "NORAD_CAT_ID": 33940, "ELEMENT_SET_NO": 999, "REV_AT_EPOCH": 88639, "BSTAR": 0.00073745937, "MEAN_MOTION_DOT": 3.425e-05, "MEAN_MOTION_DDOT": 0}, "tle": {"line1": "1 33940U 93036EV  25349.86350343  .00003425  00000+0  73746-3 0  9998", "line2": "2 33940  74.0383 137.5483 0011169 217.4499 266.1508 14.58826295886393"}}, "geometry": {"type": "Point", "coordinates": [131.76128810681473, -15.856537686668775]}}, {"type": "Feature", "properties": {"norad_id": 33942, "name": "COSMOS 2251 DEB", "group": "cosmos-2251-debris", "lat": -72.34452425546861, "lon": 152.0574505525748, "alt_km": 771.5832374106421, "timestamp": "2025-12-16T10:53:45.864226+00:00", "meta": {"OBJECT_NAME": "COSMOS 2251 DEB", "OBJECT_ID": "1993-036EX", "EPOCH": "2025-12-15T22:20:21.934752", "MEAN_MOTION": 14.37993293, "ECCENTRICITY": 0.00204584, "INCLINATION": 74.0366, "RA_OF_ASC_NODE": 268.9519, "ARG_OF_PERICENTER": 351.6039, "MEAN_ANOMALY": 83.6266, "EPHEMERIS_TYPE": 0, "CLASSIFICATION_TYPE": "U", "NORAD_CAT_ID": 33942, "ELEMENT_SET_NO": 999, "REV_AT_EPOCH": 88180, "BSTAR": 0.00021284756, "MEAN_MOTION_DOT": 6.19e-06, "MEAN_MOTION_DDOT": 0}, "tle": {"line1": "1 33942U 93036EX  25349.93080943  .00000619  00000+0  21285-3 0  9997", "line2": "2 33942  74.0366 268.9519 0020458 351.6039  83.6266 14.37993293881801"}}, "geometry": {"type": "Point", "coordinates": [152.0574505525748, -72.34452425546861]}}, {"type": "Feature", "properties": {"norad_id": 33944, "name": "COSMOS 2251 DEB", "group": "cosmos-2251-debris", "lat": 47.6035908204975, "lon": 103.82638638913218, "alt_km": 760.3628742546225, "timestamp": "2025-12-16T10:53:45.864237+00:00", "meta": {"OBJECT_NAME": "COSMOS 2251 DEB", "OBJECT_ID": "1993-036EZ", "EPOCH": "2025-12-15T22:53:49.423200", "MEAN_MOTION": 14.37350446, "ECCENTRICITY": 0.01123165, "INCLINATION": 74.0403, "RA_OF_ASC_NODE": 303.0122, "ARG_OF_PERICENTER": 41.7923, "MEAN_ANOMALY": 20.6891, "EPHEMERIS_TYPE": 0, "CLASSIFICATION_TYPE": "U", "NORAD_CAT_ID": 33944, "ELEMENT_SET_NO": 999, "REV_AT_EPOCH": 88074, "BSTAR": 0.0003395428, "MEAN_MOTION_DOT": 1.063e-05, "MEAN_MOTION_DDOT": 0}, "tle": {"line1": "1 33944U 93036EZ  25349.95404425  .00001063  00000+0  33954-3 0  9996", "line2": "2 33944  74.0403 303.0122 0112316  41.7923  20.6891 14.37350446880744"}}, "geometry": {"type": "Point", "coordinates": [103.82638638913218, 47.6035908204975]}}, {"type": "Feature", "properties": {"norad_id": 33945, "name": "COSMOS 2251 DEB", "group": "cosmos-2251-debris", "lat": -60.20866250861302, "lon": 149.47451010740275, "alt_km": 795.3036576268505, "timestamp": "2025-12-16T10:53:45.864246+00:00", "meta": {"OBJECT_NAME": "COSMOS 2251 DEB", "OBJECT_ID": "1993-036FA", "EPOCH": "2025-12-15T22:02:40.640352", "MEAN_MOTION": 14.34603533, "ECCENTRICITY": 0.00220495, "INCLINATION": 74.0299, "RA_OF_ASC_NODE": 300.4422, "ARG_OF_PERICENTER": 25.9089, "MEAN_ANOMALY": 334.3162, "EPHEMERIS_TYPE": 0, "CLASSIFICATION_TYPE": "U", "NORAD_CAT_ID": 33945, "ELEMENT_SET_NO": 999, "REV_AT_EPOCH": 88061, "BSTAR": 0.00013419158, "MEAN_MOTION_DOT": 3.54e-06, "MEAN_MOTION_DDOT": 0}, "tle": {"line1": "1 33945U 93036FA  25349.91852593  .00000354  00000+0  13419-3 0  9992", "line2": "2 33945  74.0299 300.4422 0022049  25.9089 334.3162 14.34603533880619"}}, "geometry": {"type": "Point", "coordinates": [149.47451010740275, -60.20866250861302]}}, {"type": "Feature", "properties": {"norad_id": 33948, "name": "COSMOS 2251 DEB", "group": "cosmos-2251-debris", "lat": 66.39353069751844, "lon": 77.39908466649877, "alt_km": 767.340874996301, "timestamp": "2025-12-16T10:53:45.864256+00:00", "meta": {"OBJECT_NAME": "COSMOS 2251 DEB", "OBJECT_ID": "1993-036FD", "EPOCH": "2025-12-15T22:41:29.338080", "MEAN_MOTION": 14.35633193, "ECCENTRICITY": 0.00228511, "INCLINATION": 74.0358, "RA_OF_ASC_NODE": 299.252, "ARG_OF_PERICENTER": 14.2773, "MEAN_ANOMALY": 345.902, "EPHEMERIS_TYPE": 0, "CLASSIFICATION_TYPE": "U", "NORAD_CAT_ID": 33948, "ELEMENT_SET_NO": 999, "REV_AT_EPOCH": 88069, "BSTAR": 0.00019141876, "MEAN_MOTION_DOT": 5.28e-06, "MEAN_MOTION_DDOT": 0}, "tle": {"line1": "1 33948U 93036FD  25349.94547845  .00000528  00000+0  19142-3 0  9991", "line2": "2 33948  74.0358 299.2520 0022851  14.2773 345.9020 14.35633193880699"}}, "geometry": {"type": "Point", "coordinates": [77.39908466649877, 66.39353069751844]}}, {"type": "Feature", "properties": {"norad_id": 33971, "name": "COSMOS 2251 DEB", "group": "cosmos-2251-debris", "lat": -47.233915179939366, "lon": 84.91157546365432, "alt_km": 771.8374366244752, "timestamp": "2025-12-16T10:53:45.864266+00:00", "meta": {"OBJECT_NAME": "COSMOS 2251 DEB", "OBJECT_ID": "1993-036FE", "EPOCH": "2025-12-15T19:05:17.451168", "MEAN_MOTION": 14.39730769, "ECCENTRICITY": 0.00186503, "INCLINATION": 74.0247, "RA_OF_ASC_NODE": 248.086, "ARG_OF_PERICENTER": 347.9845, "MEAN_ANOMALY": 69.4228, "EPHEMERIS_TYPE": 0, "CLASSIFICATION_TYPE": "U", "NORAD_CAT_ID": 33971, "ELEMENT_SET_NO": 999, "REV_AT_EPOCH": 88183, "BSTAR": 0.00025417988, "MEAN_MOTION_DOT": 7.71e-06, "MEAN_MOTION_DDOT": 0}, "tle": {"line1": "1 33971U 93036FE  25349.79534087  .00000771  00000+0  25418-3 0  9997", "line2": "2 33971  74.0247 248.0860 0018650 347.9845  69.4228 14.39730769881835"}}, "geometry": {"type": "Point", "coordinates": [84.91157546365432, -47.233915179939366]}}, {"type": "Feature", "properties": {"norad_id": 33972, "name": "COSMOS 2251 DEB", "group": "cosmos-2251-debris", "lat": 54.26378755090519, "lon": -19.687221289142347, "alt_km": 823.3655400702628, "timestamp": "2025-12-16T10:53:45.864277+00:00", "meta": {"OBJECT_NAME": "COSMOS 2251 DEB", "OBJECT_ID": "1993-036FF", "EPOCH": "2025-12-15T19:21:07.388064", "MEAN_MOTION": 14.36246564, "ECCENTRICITY": 0.01234326, "INCLINATION": 73.994, "RA_OF_ASC_NODE": 185.0166, "ARG_OF_PERICENTER": 352.1034, "MEAN_ANOMALY": 21.7399, "EPHEMERIS_TYPE": 0, "CLASSIFICATION_TYPE": "U", "NORAD_CAT_ID": 33972, "ELEMENT_SET_NO": 999, "REV_AT_EPOCH": 87118, "BSTAR": 0.00083641684, "MEAN_MOTION_DOT": 2.637e-05, "MEAN_MOTION_DDOT": 0}, "tle": {"line1": "1 33972U 93036FF  25349.80633551  .00002637  00000+0  83642-3 0  9992", "line2": "2 33972  73.9940 185.0166 0123432 352.1034  21.7399 14.36246564871185"}}, "geometry": {"type": "Point", "coordinates": [-19.687221289142347, 54.26378755090519]}}, {"type": "Feature", "properties": {"norad_id": 33973, "name": "COSMOS 2251 DEB", "group": "cosmos-2251-debris", "lat": -5.097995850293109, "lon": 94.49244165745412, "alt_km": 738.6421329527775, "timestamp": "2025-12-16T10:53:45.864287+00:00", "meta": {"OBJECT_NAME": "COSMOS 2251 DEB", "OBJECT_ID": "1993-036FG", "EPOCH": "2025-12-15T19:05:09.907584", "MEAN_MOTION": 14.4539414, "ECCENTRICITY": 0.00473654, "INCLINATION": 74.0085, "RA_OF_ASC_NODE": 97.1879, "ARG_OF_PERICENTER": 275.057, "MEAN_ANOMALY": 252.8567, "EPHEMERIS_TYPE": 0, "CLASSIFICATION_TYPE": "U", "NORAD_CAT_ID": 33973, "ELEMENT_SET_NO": 999, "REV_AT_EPOCH": 88644, "BSTAR": 0.00014315024, "MEAN_MOTION_DOT": 4.82e-06, "MEAN_MOTION_DDOT": 0}, "tle": {"line1": "1 33973U 93036FG  25349.79525356  .00000482  00000+0  14315-3 0  9991", "line2": "2 33973  74.0085  97.1879 0047365 275.0570 252.8567 14.45394140886443"}}, "geometry": {"type": "Point", "coordinates": [94.49244165745412, -5.097995850293109]}}, {"type": "Feature", "properties": {"norad_id": 33975, "name": "COSMOS 2251 DEB", "group": "cosmos-2251-debris", "lat": 52.082415849617796, "lon": 99.83419971676318, "alt_km": 1012.1950346591848, "timestamp": "2025-12-16T10:53:45.864297+00:00", "meta": {"OBJECT_NAME": "COSMOS 2251 DEB", "OBJECT_ID": "1993-036FJ", "EPOCH": "2025-12-15T22:37:23.928384", "MEAN_MOTION": 14.00531552, "ECCENTRICITY": 0.01912239, "INCLINATION": 73.802, "RA_OF_ASC_NODE": 78.8229, "ARG_OF_PERICENTER": 211.229, "MEAN_ANOMALY": 147.7371, "EPHEMERIS_TYPE": 0, "CLASSIFICATION_TYPE": "U", "NORAD_CAT_ID": 33975, "ELEMENT_SET_NO": 999, "REV_AT_EPOCH": 85874, "BSTAR": 0.00056526876, "MEAN_MOTION_DOT": 9.58e-06, "MEAN_MOTION_DDOT": 0}, "tle": {"line1": "1 33975U 93036FJ  25349.94263806  .00000958  00000+0  56527-3 0  9998", "line2": "2 33975  73.8020  78.8229 0191223 211.2290 147.7371 14.00531552858748"}}, "geometry": {"type": "Point", "coordinates": [99.83419971676318, 52.082415849617796]}}]}